[{"OBJECT_NAME":"TIANQI-20","OBJECT_ID":"2025-105D","EPOCH":"2026-03-09T21:45:43.775424","MEAN_MOTION":13.99100887,"ECCENTRICITY":0.00114132,"INCLINATION":44.9846,"RA_OF_ASC_NODE":103.7214,"ARG_OF_PERICENTER":272.0417,"MEAN_ANOMALY":87.9108,"EPHEMERIS_TYPE":0,"CLASSIFICATION_TYPE":"U","NORAD_CAT_ID":64061,"ELEMENT_SET_NO":999,"REV_AT_EPOCH":4130,"BSTAR":0.00015588372,"MEAN_MOTION_DOT":9.9e-7,"MEAN_MOTION_DDOT":0},{"OBJECT_NAME":"FENGYUN 1C DEB","OBJECT_ID":"1999-025AAB","EPOCH":"2026-03-09T12:10:21.895104","MEAN_MOTION":14.016367,"ECCENTRICITY":0.01419965,"INCLINATION":98.3939,"RA_OF_ASC_NODE":257.4247,"ARG_OF_PERICENTER":112.9387,"MEAN_ANOMALY":248.6836,"EPHEMERIS_TYPE":0,"CLASSIFICATION_TYPE":"U","NORAD_CAT_ID":30314,"ELEMENT_SET_NO":999,"REV_AT_EPOCH":97324,"BSTAR":0.0013453977,"MEAN_MOTION_DOT":2.188e-5,"MEAN_MOTION_DDOT":0}]
